0 FENGYUN 1C DEB
1 31658U 99025CBQ 13282.53222647  .00001752  00000-0  14736-2 0  7621
2 31658 098.1641 295.8674 0277216 314.0238 206.0494 13.72894984319992
0 FENGYUN 1C DEB
1 31658U 99025CBQ 13285.28132125  .00002172  00000-0  18189-2 0  7631
2 31658 098.1644 298.2168 0277186 306.5756 113.2823 13.72904182320378
0 FENGYUN 1C DEB
1 31658U 99025CBQ 13287.84474659  .00002692  00000-0  22468-2 0  7649
2 31658 098.1633 300.4074 0277216 299.5938 182.9893 13.72915909320723
0 FENGYUN 1C DEB
1 31658U 99025CBQ 13291.25655329  .00002577  00000-0  21506-2 0  7659
2 31658 098.1626 303.3230 0277298 290.3093 126.0054 13.72934311321190
0 FENGYUN 1C DEB
1 31658U 99025CBQ 13294.84104404  .00002956  00000-0  24607-2 0  7667
2 31658 098.1630 306.3851 0277444 280.5615 202.7369 13.72952076321684
